{
  "norad_id": 59845,
  "name": "STARLINK-31903",
  "history": [
    {
      "epoch": "2026-03-28T13:26:42.026496Z",
      "apogee_km": 483.9496629168616,
      "perigee_km": 482.10263779678553,
      "latitude_deg": 2.4454906543381643e-05,
      "longitude_deg": 133.1351130560206,
      "height_km": 482.68097372622975,
      "semi_major_axis_km": 6861.163150356823,
      "eccentricity": 0.0001346,
      "inclination_deg": 42.9979,
      "raan_deg": 160.7891,
      "arg_perigee_deg": 277.5664,
      "mean_anomaly_deg": 82.5035,
      "mean_motion_rev_day": 15.27587663
    }
  ]
}